[{"OBJECT_NAME":"STARLINK-3903","OBJECT_ID":"2022-049M","EPOCH":"2026-03-09T04:56:35.379456","MEAN_MOTION":15.08837746,"ECCENTRICITY":0.00015433,"INCLINATION":53.2174,"RA_OF_ASC_NODE":61.3034,"ARG_OF_PERICENTER":88.7314,"MEAN_ANOMALY":271.3855,"EPHEMERIS_TYPE":0,"CLASSIFICATION_TYPE":"U","NORAD_CAT_ID":52462,"ELEMENT_SET_NO":999,"REV_AT_EPOCH":21217,"BSTAR":8.055652e-6,"MEAN_MOTION_DOT":-1.6e-6,"MEAN_MOTION_DDOT":0},{"OBJECT_NAME":"CZ-6A DEB","OBJECT_ID":"2024-140RN","EPOCH":"2026-03-09T09:36:23.350464","MEAN_MOTION":14.99974811,"ECCENTRICITY":0.0047719,"INCLINATION":88.1445,"RA_OF_ASC_NODE":217.6461,"ARG_OF_PERICENTER":172.1525,"MEAN_ANOMALY":188.0467,"EPHEMERIS_TYPE":0,"CLASSIFICATION_TYPE":"U","NORAD_CAT_ID":61168,"ELEMENT_SET_NO":999,"REV_AT_EPOCH":8322,"BSTAR":0.0063622011,"MEAN_MOTION_DOT":0.00081758,"MEAN_MOTION_DDOT":0}]
